{"epoch":1784799577,"count":18318,"objects":[{"id":"43812","name":"GLOBAL-2","type":"PAYLOAD","l1":"1 43812U 18099BG  26203.82191107  .00002437  00000-0  15850-3 0  9995","l2":"2 43812  97.3546 238.8540 0006902  45.9181 314.2615 15.08859041417284"},{"id":"44499","name":"GLOBAL-4","type":"PAYLOAD","l1":"1 44499U 19054E   26203.92452204  .00076341  00000-0  67304-3 0  9994","l2":"2 44499  45.0060  29.6651 0006647 243.5323 116.4894 15.67817374385964"},{"id":"47971","name":"GLOBAL-9","type":"PAYLOAD","l1":"1 47971U 21023G   26203.89157586  .00025951  00000-0  49288-3 0  9994","l2":"2 47971  44.9818  49.6468 0004472 217.1713 142.8868 15.47860196300478"},{"id":"49469","name":"GLOBAL-14","type":"PAYLOAD","l1":"1 49469U 21106A   26203.36489403  .00027319  00000-0  44139-3 0  9998","l2":"2 49469  42.0040  81.7680 0018539 270.5008  89.3712 15.52090272263590"},{"id":"49772","name":"GLOBAL-12","type":"PAYLOAD","l1":"1 49772U 21115BA  26203.81590584  .00029990  00000-0  43444-3 0  9993","l2":"2 49772  53.1933 232.9447 0003060  81.3424 278.7935 15.55642964261442"},{"id":"49773","name":"GLOBAL-13","type":"PAYLOAD","l1":"1 49773U 21115BB  26203.72337517  .00019452  00000-0  38255-3 0  9995","l2":"2 49773  53.1961 245.4866 0000229  53.5734 306.5296 15.47309232261266"},{"id":"49949","name":"GLOBAL-17","type":"PAYLOAD","l1":"1 49949U 21120A   26203.00544594  .00027346  00000-0  41420-3 0  9991","l2":"2 49949  41.9930 201.5349 0014021 143.7702 216.4095 15.53958516260316"},{"id":"49950","name":"GLOBAL-16","type":"PAYLOAD","l1":"1 49950U 21120B   26203.71140386  .00024973  00000-0  41099-3 0  9997","l2":"2 49950  41.9931 201.7432 0011982 139.3866 220.7874 15.51731037260362"},{"id":"52196","name":"GLOBAL-18","type":"PAYLOAD","l1":"1 52196U 22034B   26203.91889484  .00025845  00000-0  50175-3 0  9993","l2":"2 52196  52.9813  85.7105 0004676  43.8520 316.2856 15.47490847242495"},{"id":"55982","name":"GLOBAL-19","type":"PAYLOAD","l1":"1 55982U 23041B   26203.80459278  .00016632  00000-0  42841-3 0  9995","l2":"2 55982  42.0029 354.0544 0010442 265.5834  94.3813 15.38839448187419"},{"id":"55983","name":"GLOBAL-5","type":"PAYLOAD","l1":"1 55983U 23041C   26203.70739089  .00015443  00000-0  39839-3 0  9998","l2":"2 55983  42.0019 354.1465 0009259 260.1116  99.8678 15.38847788187404"}]}