{"fetched_at":"2026-07-23T07:05:41.822Z","source":"https://celestrak.org/NORAD/elements/gp.php?NAME=GLOBAL&FORMAT=JSON","constellation":"blacksky-gen2","records":[{"OBJECT_NAME":"GLOBAL-2","OBJECT_ID":"2018-099BG","EPOCH":"2026-07-22T19:43:33.116448","CLASSIFICATION_TYPE":"U","MEAN_MOTION":15.08859041,"ECCENTRICITY":0.00069022,"INCLINATION":97.3546,"RA_OF_ASC_NODE":238.854,"ARG_OF_PERICENTER":45.9181,"MEAN_ANOMALY":314.2615,"EPHEMERIS_TYPE":0,"NORAD_CAT_ID":43812,"ELEMENT_SET_NO":999,"REV_AT_EPOCH":41728,"BSTAR":0.00015850453,"MEAN_MOTION_DOT":0.00002437,"MEAN_MOTION_DDOT":0},{"OBJECT_NAME":"GLOBAL-4","OBJECT_ID":"2019-054E","EPOCH":"2026-07-22T22:11:18.704256","CLASSIFICATION_TYPE":"U","MEAN_MOTION":15.67817374,"ECCENTRICITY":0.00066473,"INCLINATION":45.006,"RA_OF_ASC_NODE":29.6651,"ARG_OF_PERICENTER":243.5323,"MEAN_ANOMALY":116.4894,"EPHEMERIS_TYPE":0,"NORAD_CAT_ID":44499,"ELEMENT_SET_NO":999,"REV_AT_EPOCH":38596,"BSTAR":0.00067304365,"MEAN_MOTION_DOT":0.00076341,"MEAN_MOTION_DDOT":0},{"OBJECT_NAME":"GLOBAL-9","OBJECT_ID":"2021-023G","EPOCH":"2026-07-22T21:23:52.154304","CLASSIFICATION_TYPE":"U","MEAN_MOTION":15.47860196,"ECCENTRICITY":0.00044715,"INCLINATION":44.9818,"RA_OF_ASC_NODE":49.6468,"ARG_OF_PERICENTER":217.1713,"MEAN_ANOMALY":142.8868,"EPHEMERIS_TYPE":0,"NORAD_CAT_ID":47971,"ELEMENT_SET_NO":999,"REV_AT_EPOCH":30047,"BSTAR":0.000492881,"MEAN_MOTION_DOT":0.00025951,"MEAN_MOTION_DDOT":0},{"OBJECT_NAME":"GLOBAL-14","OBJECT_ID":"2021-106A","EPOCH":"2026-07-22T08:45:26.844192","CLASSIFICATION_TYPE":"U","MEAN_MOTION":15.52090272,"ECCENTRICITY":0.00185394,"INCLINATION":42.004,"RA_OF_ASC_NODE":81.768,"ARG_OF_PERICENTER":270.5008,"MEAN_ANOMALY":89.3712,"EPHEMERIS_TYPE":0,"NORAD_CAT_ID":49469,"ELEMENT_SET_NO":999,"REV_AT_EPOCH":26359,"BSTAR":0.00044139014,"MEAN_MOTION_DOT":0.00027319,"MEAN_MOTION_DDOT":0},{"OBJECT_NAME":"GLOBAL-12","OBJECT_ID":"2021-115BA","EPOCH":"2026-07-22T19:34:54.264576","CLASSIFICATION_TYPE":"U","MEAN_MOTION":15.55642964,"ECCENTRICITY":0.000306,"INCLINATION":53.1933,"RA_OF_ASC_NODE":232.9447,"ARG_OF_PERICENTER":81.3424,"MEAN_ANOMALY":278.7935,"EPHEMERIS_TYPE":0,"NORAD_CAT_ID":49772,"ELEMENT_SET_NO":999,"REV_AT_EPOCH":26144,"BSTAR":0.00043444019,"MEAN_MOTION_DOT":0.0002999,"MEAN_MOTION_DDOT":0},{"OBJECT_NAME":"GLOBAL-13","OBJECT_ID":"2021-115BB","EPOCH":"2026-07-22T17:21:39.614688","CLASSIFICATION_TYPE":"U","MEAN_MOTION":15.47309232,"ECCENTRICITY":0.00002285,"INCLINATION":53.1961,"RA_OF_ASC_NODE":245.4866,"ARG_OF_PERICENTER":53.5734,"MEAN_ANOMALY":306.5296,"EPHEMERIS_TYPE":0,"NORAD_CAT_ID":49773,"ELEMENT_SET_NO":999,"REV_AT_EPOCH":26126,"BSTAR":0.00038255161,"MEAN_MOTION_DOT":0.00019452,"MEAN_MOTION_DDOT":0},{"OBJECT_NAME":"GLOBAL-17","OBJECT_ID":"2021-120A","EPOCH":"2026-07-22T00:07:50.529216","CLASSIFICATION_TYPE":"U","MEAN_MOTION":15.53958516,"ECCENTRICITY":0.0014021,"INCLINATION":41.993,"RA_OF_ASC_NODE":201.5349,"ARG_OF_PERICENTER":143.7702,"MEAN_ANOMALY":216.4095,"EPHEMERIS_TYPE":0,"NORAD_CAT_ID":49949,"ELEMENT_SET_NO":999,"REV_AT_EPOCH":26031,"BSTAR":0.00041419875,"MEAN_MOTION_DOT":0.00027346,"MEAN_MOTION_DDOT":0},{"OBJECT_NAME":"GLOBAL-16","OBJECT_ID":"2021-120B","EPOCH":"2026-07-22T17:04:25.293504","CLASSIFICATION_TYPE":"U","MEAN_MOTION":15.51731037,"ECCENTRICITY":0.0011982,"INCLINATION":41.9931,"RA_OF_ASC_NODE":201.7432,"ARG_OF_PERICENTER":139.3866,"MEAN_ANOMALY":220.7874,"EPHEMERIS_TYPE":0,"NORAD_CAT_ID":49950,"ELEMENT_SET_NO":999,"REV_AT_EPOCH":26036,"BSTAR":0.00041098539,"MEAN_MOTION_DOT":0.00024973,"MEAN_MOTION_DDOT":0},{"OBJECT_NAME":"GLOBAL-18","OBJECT_ID":"2022-034B","EPOCH":"2026-07-22T22:03:12.514176","CLASSIFICATION_TYPE":"U","MEAN_MOTION":15.47490847,"ECCENTRICITY":0.00046759,"INCLINATION":52.9813,"RA_OF_ASC_NODE":85.7105,"ARG_OF_PERICENTER":43.852,"MEAN_ANOMALY":316.2856,"EPHEMERIS_TYPE":0,"NORAD_CAT_ID":52196,"ELEMENT_SET_NO":999,"REV_AT_EPOCH":24249,"BSTAR":0.00050174981,"MEAN_MOTION_DOT":0.00025845,"MEAN_MOTION_DDOT":0},{"OBJECT_NAME":"GLOBAL-19","OBJECT_ID":"2023-041B","EPOCH":"2026-07-22T19:18:36.816192","CLASSIFICATION_TYPE":"U","MEAN_MOTION":15.38839448,"ECCENTRICITY":0.00104422,"INCLINATION":42.0029,"RA_OF_ASC_NODE":354.0544,"ARG_OF_PERICENTER":265.5834,"MEAN_ANOMALY":94.3813,"EPHEMERIS_TYPE":0,"NORAD_CAT_ID":55982,"ELEMENT_SET_NO":999,"REV_AT_EPOCH":18741,"BSTAR":0.00042841398,"MEAN_MOTION_DOT":0.00016632,"MEAN_MOTION_DDOT":0},{"OBJECT_NAME":"GLOBAL-5","OBJECT_ID":"2023-041C","EPOCH":"2026-07-22T16:58:38.572896","CLASSIFICATION_TYPE":"U","MEAN_MOTION":15.38847788,"ECCENTRICITY":0.00092593,"INCLINATION":42.0019,"RA_OF_ASC_NODE":354.1465,"ARG_OF_PERICENTER":260.1116,"MEAN_ANOMALY":99.8678,"EPHEMERIS_TYPE":0,"NORAD_CAT_ID":55983,"ELEMENT_SET_NO":999,"REV_AT_EPOCH":18740,"BSTAR":0.00039838769,"MEAN_MOTION_DOT":0.00015443,"MEAN_MOTION_DDOT":0}]}
